NORAD_CAT_ID,OBJECT_NAME,OBJECT_TYPE,EPOCH,MEAN_MOTION,ECCENTRICITY,INCLINATION,RA_OF_ASC_NODE,ARG_OF_PERICENTER,MEAN_ANOMALY,BSTAR,MEAN_MOTION_DOT,MEAN_MOTION_DDOT,TLE_LINE0,TLE_LINE1,TLE_LINE2,SEMIMAJOR_AXIS,PERIOD,APOGEE,PERIGEE,DECAYED
50828.0,STARLINK-3290,PAYLOAD,2022-07-28 09:24:15,15.08846798,0.0001464,53.2172,336.1815,61.6422,298.4717,0.00013584,1.875e-05,0.0,0 STARLINK-3290,1 50828U 22001AB  22209.39185123  .00001875  00000-0  13584-3 0  9990,2 50828  53.2172 336.1815 0001464  61.6422 298.4717 15.08846798 30937,6917.86,95.437,540.737,538.712,0.0
50828.0,STARLINK-3290,PAYLOAD,2022-07-28 15:45:48,15.08842415,0.0001489,53.2172,334.9921,61.3759,298.7383,2.8448000000000013e-05,1.65e-06,0.0,0 STARLINK-3290,1 50828U 22001AB  22209.65681237  .00000165  00000-0  28448-4 0  9993,2 50828  53.2172 334.9921 0001489  61.3759 298.7383 15.08842415 32406,6917.873000000001,95.437,540.768,538.7080000000002,0.0
50828.0,STARLINK-3290,PAYLOAD,2022-07-29 09:15:02,15.08847163,0.0001513,53.2173,331.7211,61.5126,298.6018,9.2122e-05,1.179e-05,0.0,0 STARLINK-3290,1 50828U 22001AB  22210.38544892  .00001179  00000-0  92122-4 0  9996,2 50828  53.2173 331.7211 0001513  61.5126 298.6018 15.08847163 31084,6917.858,95.437,540.77,538.677,0.0
50828.0,STARLINK-3290,PAYLOAD,2022-07-29 17:11:58,15.08850454,0.0001526,53.2173,330.2344,61.8145,298.3001,9.9231e-05,1.292e-05,0.0,0 STARLINK-3290,1 50828U 22001AB  22210.71664561  .00001292  00000-0  99231-4 0  9993,2 50828  53.2173 330.2344 0001526  61.8145 298.3001 15.08850454 31135,6917.848000000001,95.437,540.769,538.658,0.0
50828.0,STARLINK-3290,PAYLOAD,2022-07-30 07:30:26,15.08842005,0.000161,53.2171,327.5581,62.7438,297.3718,-3.0165e-05,-7.68e-06,0.0,0 STARLINK-3290,1 50828U 22001AB  22211.31280821 -.00000768  00000-0 -30165-4 0  9993,2 50828  53.2171 327.5581 0001610  62.7438 297.3718 15.08842005 32659,6917.874,95.437,540.8530000000002,538.625,0.0
50828.0,STARLINK-3290,PAYLOAD,2022-07-30 13:51:59,15.08838908,0.0001626999999999,53.2177,326.3686,64.693,295.423,6.1323e-05,6.88e-06,0.0,0 STARLINK-3290,1 50828U 22001AB  22211.57777296  .00000688  00000-0  61323-4 0  9997,2 50828  53.2177 326.3686 0001627  64.6930 295.4230 15.08838908 31265,6917.884,95.438,540.874,538.623,0.0
50828.0,STARLINK-3290,PAYLOAD,2022-07-30 17:02:46,15.08835777,0.0001513,53.2172,325.7739,63.4994,296.6153,3.564e-05,2.79e-06,0.0,0 STARLINK-3290,1 50828U 22001AB  22211.71025509  .00000279  00000-0  35640-4 0  9995,2 50828  53.2172 325.7739 0001513  63.4994 296.6153 15.08835777 32712,6917.893,95.438,540.805,538.712,0.0
50828.0,STARLINK-3290,PAYLOAD,2022-07-31 10:31:59,15.08844788,0.0001485,53.217,322.5029,63.1966,296.9178,3.7092e-05,3.02e-06,0.0,0 STARLINK-3290,1 50828U 22001AB  22212.43888807  .00000302  00000-0  37092-4 0  9993,2 50828  53.2170 322.5029 0001485  63.1966 296.9178 15.08844788 32825,6917.866,95.437,540.758,538.703,0.0
50828.0,STARLINK-3290,PAYLOAD,2022-07-31 13:42:46,15.08845282,0.0001458,53.2172,321.9078,64.4265,295.6878,3.4444000000000004e-05,2.6e-06,0.0,0 STARLINK-3290,1 50828U 22001AB  22212.57136722  .00000260  00000-0  34444-4 0  9991,2 50828  53.2172 321.9078 0001458  64.4265 295.6878 15.08845282 31417,6917.864000000001,95.437,540.738,538.721,0.0
50828.0,STARLINK-3290,PAYLOAD,2022-07-31 16:53:32,15.08844881,0.0001453,53.2173,321.3132,64.3499,295.7643,2.6817e-05,1.39e-06,0.0,0 STARLINK-3290,1 50828U 22001AB  22212.70384717  .00000139  00000-0  26817-4 0  9995,2 50828  53.2173 321.3132 0001453  64.3499 295.7643 15.08844881 31433,6917.865,95.437,540.736,538.725,0.0
50828.0,STARLINK-3290,PAYLOAD,2022-08-01 13:33:32,15.08847068,0.0001439,53.2175,317.4476,62.7607,297.3532,0.00016044,2.267e-05,0.0,0 STARLINK-3290,1 50828U 22001AB  22213.56495949  .00002267  00000-0  16044-3 0  9994,2 50828  53.2175 317.4476 0001439  62.7607 297.3532 15.08847068 32996,6917.859,95.437,540.719,538.7280000000002,0.0
50828.0,STARLINK-3290,PAYLOAD,2022-08-01 16:44:18,15.08845174,0.0001439,53.2176,316.8531,61.0208,299.0929,0.00012265,1.665e-05,0.0,0 STARLINK-3290,1 50828U 22001AB  22213.69744149  .00001665  00000-0  12265-3 0  9999,2 50828  53.2176 316.8531 0001439  61.0208 299.0929 15.08845174 31580,6917.865,95.437,540.725,538.734,0.0
50828.0,STARLINK-3290,PAYLOAD,2022-08-02 13:24:20,15.0884225,0.000148,53.2175,312.9878,61.9442,298.17,4.4672e-05,4.23e-06,0.0,0 STARLINK-3290,1 50828U 22001AB  22214.55856482  .00000423  00000-0  44672-4 0  9998,2 50828  53.2175 312.9878 0001480  61.9442 298.1700 15.08842250 31719,6917.874,95.437,540.762,538.715,0.0
50828.0,STARLINK-3290,PAYLOAD,2022-08-03 11:39:44,15.08835203,0.0001519,53.2179,308.8243,63.2211,296.8936,-7.3306e-05,-1.454e-05,0.0,0 STARLINK-3290,1 50828U 22001AB  22215.48593229 -.00001454  00000-0 -73306-4 0  9991,2 50828  53.2179 308.8243 0001519  63.2211 296.8936 15.08835203 33285,6917.895,95.438,540.811,538.7090000000002,0.0
50828.0,STARLINK-3290,PAYLOAD,2022-08-03 14:50:31,15.08784191,0.0001882,53.2181,308.2293,70.1421,289.9774,0.00059411,9.166e-05,0.0,0 STARLINK-3290,1 50828U 22001AB  22215.61842358  .00009166  00000-0  59411-3 0  9992,2 50828  53.2181 308.2293 0001882  70.1421 289.9774 15.08784191 31875,6918.051,95.441,541.2180000000002,538.614,0.0
50828.0,STARLINK-3290,PAYLOAD,2022-08-04 11:30:31,15.08836799,0.0001517,53.2174,304.3642,59.2854,300.8287,2.608e-05,1.27e-06,0.0,0 STARLINK-3290,1 50828U 22001AB  22216.47953121  .00000127  00000-0  26080-4 0  9993,2 50828  53.2174 304.3642 0001517  59.2854 300.8287 15.08836799 32005,6917.89,95.438,540.805,538.706,0.0
50828.0,STARLINK-3290,PAYLOAD,2022-08-04 16:16:40,15.08838172,0.0001528,53.2173,303.4722,58.9805,301.1337,3.6148e-05,2.87e-06,0.0,0 STARLINK-3290,1 50828U 22001AB  22216.67825043  .00000287  00000-0  36148-4 0  9999,2 50828  53.2173 303.4722 0001528  58.9805 301.1337 15.08838172 32037,6917.886,95.438,540.808,538.694,0.0
50828.0,STARLINK-3290,PAYLOAD,2022-08-05 11:21:18,15.08833076,0.0001476999999999,53.2172,299.904,59.1403,300.9734,7.8186e-05,9.56e-06,0.0,0 STARLINK-3290,1 50828U 22001AB  22217.47313440  .00000956  00000-0  78186-4 0  9992,2 50828  53.2172 299.9040 0001477  59.1403 300.9734 15.08833076 32157,6917.901999999999,95.438,540.788,538.745,0.0
50828.0,STARLINK-3290,PAYLOAD,2022-08-05 16:07:28,15.08829189,0.0001489,53.2168,299.0119,58.199,301.9147,4.162e-05,3.74e-06,0.0,0 STARLINK-3290,1 50828U 22001AB  22217.67185907  .00000374  00000-0  41620-4 0  9996,2 50828  53.2168 299.0119 0001489  58.1990 301.9147 15.08829189 33614,6917.913000000001,95.438,540.809,538.748,0.0
50828.0,STARLINK-3290,PAYLOAD,2022-08-06 11:12:06,15.08837765,0.0001494,53.2167,295.4435,58.7173,301.3965,3.7613e-05,3.11e-06,0.0,0 STARLINK-3290,1 50828U 22001AB  22218.46673750  .00000311  00000-0  37613-4 0  9990,2 50828  53.2167 295.4435 0001494  58.7173 301.3965 15.08837765 33733,6917.887,95.438,540.786,538.719,0.0
50828.0,STARLINK-3290,PAYLOAD,2022-08-06 14:22:52,15.08839249,0.0001509,53.2166,294.8487,58.6852,301.4288,4.8289e-05,4.81e-06,0.0,0 STARLINK-3290,1 50828U 22001AB  22218.59921646  .00000481  00000-0  48289-4 0  9993,2 50828  53.2166 294.8487 0001509  58.6852 301.4288 15.08839249 32324,6917.8830000000025,95.438,540.7919999999998,538.7040000000002,0.0
50828.0,STARLINK-3290,PAYLOAD,2022-08-07 12:38:15,15.08843609,0.0001606,53.2167,290.6855,60.7495,299.3658,0.00015585,2.193e-05,0.0,0 STARLINK-3290,1 50828U 22001AB  22219.52657076  .00002193  00000-0  15585-3 0  9994,2 50828  53.2167 290.6855 0001606  60.7495 299.3658 15.08843609 33897,6917.869000000002,95.437,540.845,538.623,0.0
50828.0,STARLINK-3290,PAYLOAD,2022-08-07 15:49:01,15.08845235,0.0001609,53.2167,290.0907,60.6905,299.4247,0.00016579,2.352e-05,0.0,0 STARLINK-3290,1 50828U 22001AB  22219.65904949  .00002352  00000-0  16579-3 0  9993,2 50828  53.2167 290.0907 0001609  60.6905 299.4247 15.08845235 32483,6917.864000000001,95.437,540.842,538.616,0.0
50828.0,STARLINK-3290,PAYLOAD,2022-08-08 10:53:39,15.08845687,0.0001613,53.2167,286.5221,61.4704,298.645,8.646e-05,1.088e-05,0.0,0 STARLINK-3290,1 50828U 22001AB  22220.45393015  .00001088  00000-0  86460-4 0  9991,2 50828  53.2167 286.5221 0001613  61.4704 298.6450 15.08845687 32605,6917.863,95.437,540.844,538.612,0.0
50828.0,STARLINK-3290,PAYLOAD,2022-08-08 14:04:25,15.08847284,0.0001598,53.2166,285.9273,61.9686,298.1468,9.5135e-05,1.227e-05,0.0,0 STARLINK-3290,1 50828U 22001AB  22220.58640822  .00001227  00000-0  95135-4 0  9990,2 50828  53.2166 285.9273 0001598  61.9686 298.1468 15.08847284 32621,6917.858,95.437,540.8290000000002,538.618,0.0
50828.0,STARLINK-3290,PAYLOAD,2022-08-09 10:44:26,15.08845073,0.00016,53.2168,282.0618,59.4154,300.6996,2.7382e-05,1.48e-06,0.0,0 STARLINK-3290,1 50828U 22001AB  22221.44752563  .00000148  00000-0  27382-4 0  9992,2 50828  53.2168 282.0618 0001600  59.4154 300.6996 15.08845073 32753,6917.865,95.437,540.837,538.623,0.0
50828.0,STARLINK-3290,PAYLOAD,2022-08-10 04:13:41,15.088358,0.0001593,53.2164,278.7914,56.0855,304.0288,-6.0095e-05,-1.244e-05,0.0,0 STARLINK-3290,1 50828U 22001AB  22222.17617311 -.00001244  00000-0 -60095-4 0  9992,2 50828  53.2164 278.7914 0001593  56.0855 304.0288 15.08835800 34292,6917.893,95.438,540.86,538.656,0.0
50828.0,STARLINK-3290,PAYLOAD,2022-08-10 08:59:50,15.08838918,0.00016,53.2165,277.8993,56.3177,303.7968,-3.3853e-05,-8.27e-06,0.0,0 STARLINK-3290,1 50828U 22001AB  22222.37489040 -.00000827  00000-0 -33853-4 0  9998,2 50828  53.2165 277.8993 0001600  56.3177 303.7968 15.08838918 32897,6917.884,95.438,540.856,538.6419999999998,0.0
50828.0,STARLINK-3290,PAYLOAD,2022-08-10 13:45:59,15.0883979,0.0001615,53.2165,277.0072,56.7023,303.4124,-2.4951e-05,-6.85e-06,0.0,0 STARLINK-3290,1 50828U 22001AB  22222.57360955 -.00000685  00000-0 -24951-4 0  9994,2 50828  53.2165 277.0072 0001615  56.7023 303.4124 15.08839790 32921,6917.880999999999,95.438,540.863,538.629,0.0
